[{"OBJECT_NAME":"CARTOSAT-2B","OBJECT_ID":"2010-035A","EPOCH":"2026-03-09T09:22:05.678400","MEAN_MOTION":14.78772269,"ECCENTRICITY":0.00124689,"INCLINATION":97.8747,"RA_OF_ASC_NODE":119.6773,"ARG_OF_PERICENTER":150.1325,"MEAN_ANOMALY":210.06,"EPHEMERIS_TYPE":0,"CLASSIFICATION_TYPE":"U","NORAD_CAT_ID":36795,"ELEMENT_SET_NO":999,"REV_AT_EPOCH":84510,"BSTAR":0.0001830405,"MEAN_MOTION_DOT":1.295e-5,"MEAN_MOTION_DDOT":0},{"OBJECT_NAME":"COSMOS 1275 DEB","OBJECT_ID":"1981-053BQ","EPOCH":"2026-03-09T15:40:24.357216","MEAN_MOTION":14.77002931,"ECCENTRICITY":0.0001198,"INCLINATION":82.9323,"RA_OF_ASC_NODE":284.0642,"ARG_OF_PERICENTER":58.3597,"MEAN_ANOMALY":301.7733,"EPHEMERIS_TYPE":0,"CLASSIFICATION_TYPE":"U","NORAD_CAT_ID":12723,"ELEMENT_SET_NO":999,"REV_AT_EPOCH":29706,"BSTAR":0.0025696,"MEAN_MOTION_DOT":0.0001816,"MEAN_MOTION_DDOT":0}]
